QIANFAN-113             
1 68640U 26075E   26195.18009837  .00000066  00000+0  83333-4 0  9998
2 68640  88.9918 318.2406 0001964 106.3183 253.8185 13.51018290 13450
QIANFAN-114             
1 68641U 26075F   26195.18829047  .00000070  00000+0  90450-4 0  9995
2 68641  88.9913 318.2576 0002042 103.8509 256.2869 13.51017059 13443
QIANFAN-115             
1 68642U 26075G   26195.14294669  .00000058  00000+0  71856-4 0  9993
2 68642  88.9913 318.2695 0002170 107.0030 253.1359 13.51013807 13439
QIANFAN-116             
1 68643U 26075H   26195.13060751  .00000061  00000+0  75491-4 0  9999
2 68643  88.9906 318.2288 0001926 113.6326 246.5027 13.51014350 13442
QIANFAN-117             
1 68644U 26075J   26195.19232410  .00000060  00000+0  75016-4 0  9991
2 68644  88.9911 318.2394 0002109 110.5663 249.5715 13.51024263 13453
QIANFAN-118             
1 68645U 26075K   26194.55868006 -.00000057  00000+0 -10690-3 0  9991
2 68645  88.9913 318.3133 0001829 100.2868 259.8489 13.51013822 13360
QIANFAN-119             
1 68646U 26075L   26194.60811011  .00000054  00000+0  65319-4 0  9996
2 68646  88.9915 318.3039 0002195 112.6160 247.5223 13.51020353 13375
QIANFAN-120             
1 68647U 26075M   26194.54650482  .00000057  00000+0  69509-4 0  9991
2 68647  88.9917 318.2957 0002344 113.1641 246.9757 13.51020781 13372
QIANFAN-121             
1 68648U 26075N   26194.57105502  .00000060  00000+0  73585-4 0  9996
2 68648  88.9915 318.2975 0002036 101.8380 258.2999 13.51012885 13373
QIANFAN-122             
1 68649U 26075P   26194.56295050  .00000063  00000+0  78733-4 0  9997
2 68649  88.9914 318.2962 0002110 112.7956 247.3419 13.51016551 13361
QIANFAN-123             
1 68650U 26075Q   26194.60413525  .00000059  00000+0  72290-4 0  9990
2 68650  88.9910 318.2812 0002200 118.0158 242.1216 13.51014943 13356
QIANFAN-124             
1 68651U 26075R   26194.55472662  .00000060  00000+0  75010-4 0  9997
2 68651  88.9913 318.2958 0002113 114.7708 245.3664 13.51016103 13372
QIANFAN-125             
1 68652U 26075S   26194.56694766  .00000059  00000+0  72954-4 0  9992
2 68652  88.9913 318.2967 0002006 101.9665 258.1711 13.51013088 13378
QIANFAN-126             
1 68653U 26075T   26194.57525988  .00000049  00000+0  56773-4 0  9993
2 68653  88.9917 318.2626 0002217 117.7404 242.3973 13.51018190 13391
QIANFAN-127             
1 69073U 26104A   26195.21028463  .00000023  00000+0  15018-4 0  9990
2 69073  88.9911 338.7118 0009419   9.4732 350.6599 13.57855626  8803
QIANFAN-128             
1 69074U 26104B   26195.19386368  .00000001  00000+0 -15418-4 0  9990
2 69074  88.9893 338.7460 0009703  13.3216 346.8193 13.56815234  8784
